IRIDIUM 144             
1 43249U 18030A   24074.91555118  .00000097  00000+0  27719-4 0  9991
2 43249  86.3909 274.8806 0002152  89.7557 270.3885 14.34217987311997
IRIDIUM 149             
1 43250U 18030B   24075.06143319  .00000132  00000+0  40080-4 0  9992
2 43250  86.3908 274.7956 0002199  86.2333 273.9114 14.34218049312038
IRIDIUM 157             
1 43251U 18030C   24075.49906573  .00000010  00000+0 -34560-5 0  9992
2 43251  86.3909 274.6474 0001823  89.6355 270.5050 14.34217037312070
IRIDIUM 140             
1 43252U 18030D   24075.09948480  .00000009  00000+0 -37663-5 0  9997
2 43252  86.3910 274.8293 0002441  93.1999 266.9476 14.34217275312070
IRIDIUM 145             
1 43253U 18030E   24075.01703038  .00000103  00000+0  29585-4 0  9995
2 43253  86.3909 274.8377 0002397  86.6768 273.4702 14.34217298311993
IRIDIUM 146             
1 43254U 18030F   24074.92823573  .00000009  00000+0 -40091-5 0  9994
2 43254  86.3911 274.8899 0002282  86.2417 273.9039 14.34217622311995
IRIDIUM 148             
1 43255U 18030G   24075.52443978  .00000098  00000+0  27815-4 0  9994
2 43255  86.3910 274.6711 0002118  80.7648 279.3788 14.34218212312122
IRIDIUM 142             
1 43256U 18030H   24075.07411390  .00000098  00000+0  28094-4 0  9998
2 43256  86.3908 274.7785 0002258  84.7219 275.4234 14.34217880312016
